ORBCOMM FM103           
1 40091U 14040F   25326.10946558  .00000796  00000+0  20612-3 0  9994
2 40091  47.0066 351.8455 0002675 280.2081  79.8503 14.58482434587152
ORBCOMM FM114           
1 41179U 15081A   25326.19523294  .00000792  00000+0  20525-3 0  9994
2 41179  47.0029 260.4050 0002458 337.5517  22.5261 14.58518735527530
ORBCOMM FM119           
1 41180U 15081B   25324.34067481  .00000638  00000+0  17258-3 0  9990
2 41180  46.9988 178.5231 0000802  21.7306 338.3614 14.58445712528516
ORBCOMM FM105           
1 41181U 15081C   25325.97823001  .00000237  00000+0  11113-3 0  9998
2 41181  47.0003 191.1348 0002144 302.9794  57.0880 14.45378484523571
ORBCOMM FM110           
1 41182U 15081D   25326.18577176  .00001250  00000+0  30231-3 0  9990
2 41182  47.0014 259.9624 0002421 223.6354 136.4340 14.58579497527403
ORBCOMM FM118           
1 41183U 15081E   25326.21982231  .00001000  00000+0  24953-3 0  9994
2 41183  47.0041 260.0903 0002227 172.3000 187.7921 14.58526519527512
ORBCOMM FM112           
1 41184U 15081F   25325.94903028  .00000615  00000+0  16728-3 0  9993
2 41184  46.9973 169.9217 0001427 333.2729  26.8083 14.58594924528694
ORBCOMM FM113           
1 41185U 15081G   25325.99477579  .00000721  00000+0  18977-3 0  9992
2 41185  46.9991 170.0579 0001103 345.9582  14.1273 14.58585529528688
